{
    "links": {
        "self": "http://www.neowsapp.com/rest/v1/neo/3442844?api_key=iIulBulltgU6a56xZRHN4H3l9WmuAYTsLGpBGhQ2"
    },
    "id": "3442844",
    "neo_reference_id": "3442844",
    "name": "(2008 YB29)",
    "designation": "2008 YB29",
    "nasa_jpl_url": "http://ssd.jpl.nasa.gov/sbdb.cgi?sstr=3442844",
    "absolute_magnitude_h": 25.7,
    "estimated_diameter": {
        "kilometers": {
            "estimated_diameter_min": 0.0192555078,
            "estimated_diameter_max": 0.0430566244
        },
        "meters": {
            "estimated_diameter_min": 19.2555078188,
            "estimated_diameter_max": 43.0566244241
        },
        "miles": {
            "estimated_diameter_min": 0.0119648141,
            "estimated_diameter_max": 0.0267541378
        },
        "feet": {
            "estimated_diameter_min": 63.1742402722,
            "estimated_diameter_max": 141.2618956756
        }
    },
    "is_potentially_hazardous_asteroid": false,
    "close_approach_data": [
        {
            "close_approach_date": "2008-12-27",
            "close_approach_date_full": "2008-Dec-27 14:38",
            "epoch_date_close_approach": 1230388680000,
            "relative_velocity": {
                "kilometers_per_second": "7.5352155249",
                "kilometers_per_hour": "27126.7758896236",
                "miles_per_hour": "16855.5236076386"
            },
            "miss_distance": {
                "astronomical": "0.0188543348",
                "lunar": "7.3343362372",
                "kilometers": "2820568.326346876",
                "miles": "1752619.8879278488"
            },
            "orbiting_body": "Earth"
        },
        {
            "close_approach_date": "2181-02-01",
            "close_approach_date_full": "2181-Feb-01 23:57",
            "epoch_date_close_approach": 6661353420000,
            "relative_velocity": {
                "kilometers_per_second": "12.3741008571",
                "kilometers_per_hour": "44546.7630855442",
                "miles_per_hour": "27679.6262072371"
            },
            "miss_distance": {
                "astronomical": "0.174451765",
                "lunar": "67.861736585",
                "kilometers": "26097612.46174055",
                "miles": "16216304.42369759"
            },
            "orbiting_body": "Earth"
        }
    ],
    "orbital_data": {
        "orbit_id": "11",
        "orbit_determination_date": "2017-04-06 09:01:48",
        "first_observation_date": "2008-12-30",
        "last_observation_date": "2009-01-21",
        "data_arc_in_days": 22,
        "observations_used": 39,
        "orbit_uncertainty": "8",
        "minimum_orbit_intersection": ".0186998",
        "jupiter_tisserand_invariant": "3.287",
        "epoch_osculation": "2454834.5",
        "eccentricity": ".5796424904211981",
        "semi_major_axis": "2.378466155095004",
        "inclination": "3.978626754218998",
        "ascending_node_longitude": "283.1449440183953",
        "orbital_period": "1339.812084883224",
        "perihelion_distance": ".9998061095732045",
        "perihelion_argument": "170.1094193763676",
        "aphelion_distance": "3.757126200616804",
        "perihelion_time": "2454825.764942847838",
        "mean_anomaly": "2.347060912689409",
        "mean_motion": ".268694396820116",
        "equinox": "J2000",
        "orbit_class": {
            "orbit_class_type": "APO",
            "orbit_class_description": "Near-Earth asteroid orbits which cross the Earth’s orbit similar to that of 1862 Apollo",
            "orbit_class_range": "a (semi-major axis) > 1.0 AU; q (perihelion) < 1.017 AU"
        }
    },
    "is_sentry_object": false
}